{
  "norad_id": 67775,
  "name": "KUIPER-00208",
  "history": [
    {
      "epoch": "2026-05-01T23:05:32.775360Z",
      "apogee_km": 644.962810414615,
      "perigee_km": 635.882198127988,
      "latitude_deg": -1.200404361829406e-06,
      "longitude_deg": 126.97307996696152,
      "height_km": 642.9071911928114,
      "semi_major_axis_km": 7018.559504271301,
      "eccentricity": 0.0006469,
      "inclination_deg": 51.8989,
      "raan_deg": 333.2467,
      "arg_perigee_deg": 247.5374,
      "mean_anomaly_deg": 112.4902,
      "mean_motion_rev_day": 14.76490927
    },
    {
      "epoch": "2026-05-03T20:34:41.385216Z",
      "apogee_km": 644.9446581210277,
      "perigee_km": 635.8528469072198,
      "latitude_deg": -1.5753254375815887e-06,
      "longitude_deg": 154.48326806815854,
      "height_km": 642.3691180784339,
      "semi_major_axis_km": 7018.5357525141235,
      "eccentricity": 0.0006477,
      "inclination_deg": 51.8992,
      "raan_deg": 324.9108,
      "arg_perigee_deg": 254.4285,
      "mean_anomaly_deg": 105.5961,
      "mean_motion_rev_day": 14.76498422
    },
    {
      "epoch": "2026-05-04T19:19:15.392064Z",
      "apogee_km": 644.9502939816248,
      "perigee_km": 635.8234055673774,
      "latitude_deg": -4.6990257961619834e-05,
      "longitude_deg": 168.23912137001201,
      "height_km": 642.098549405985,
      "semi_major_axis_km": 7018.523849774501,
      "eccentricity": 0.0006502,
      "inclination_deg": 51.8983,
      "raan_deg": 320.7424,
      "arg_perigee_deg": 257.8344,
      "mean_anomaly_deg": 102.1888,
      "mean_motion_rev_day": 14.76502178
    },
    {
      "epoch": "2026-05-05T18:03:49.190688Z",
      "apogee_km": 644.9430977887159,
      "perigee_km": 635.8049964053962,
      "latitude_deg": 4.2648785009510015e-05,
      "longitude_deg": -178.00375031624932,
      "height_km": 641.8142364208937,
      "semi_major_axis_km": 7018.511047097056,
      "eccentricity": 0.000651,
      "inclination_deg": 51.8981,
      "raan_deg": 316.5743,
      "arg_perigee_deg": 261.312,
      "mean_anomaly_deg": 98.7104,
      "mean_motion_rev_day": 14.76506218
    },
    {
      "epoch": "2026-05-06T11:55:58.570752Z",
      "apogee_km": 644.9182421014002,
      "perigee_km": 635.822677543918,
      "latitude_deg": 1.1976330015656203e-05,
      "longitude_deg": -90.05152562233297,
      "height_km": 641.6205536531746,
      "semi_major_axis_km": 7018.507459822659,
      "eccentricity": 0.00064797,
      "inclination_deg": 51.8982,
      "raan_deg": 313.2995,
      "arg_perigee_deg": 263.6872,
      "mean_anomaly_deg": 96.3351,
      "mean_motion_rev_day": 14.7650735
    },
    {
      "epoch": "2026-05-07T05:48:07.720992Z",
      "apogee_km": 644.8829616519615,
      "perigee_km": 635.8389252020606,
      "latitude_deg": -1.4253306747527595e-05,
      "longitude_deg": -2.0979371448503805,
      "height_km": 641.4135718303233,
      "semi_major_axis_km": 7018.497943427011,
      "eccentricity": 0.0006443,
      "inclination_deg": 51.8984,
      "raan_deg": 310.0251,
      "arg_perigee_deg": 266.1635,
      "mean_anomaly_deg": 93.8589,
      "mean_motion_rev_day": 14.76510353
    },
    {
      "epoch": "2026-05-08T04:32:41.171424Z",
      "apogee_km": 644.9250626880048,
      "perigee_km": 635.7864236569749,
      "latitude_deg": 9.588123757942505e-06,
      "longitude_deg": 11.660895069046092,
      "height_km": 641.1861511200545,
      "semi_major_axis_km": 7018.49274317249,
      "eccentricity": 0.00065104,
      "inclination_deg": 51.898,
      "raan_deg": 305.8573,
      "arg_perigee_deg": 268.9923,
      "mean_anomaly_deg": 91.0292,
      "mean_motion_rev_day": 14.76511994
    },
    {
      "epoch": "2026-05-09T17:54:27.324576Z",
      "apogee_km": 644.8690737703682,
      "perigee_km": 635.8236524120157,
      "latitude_deg": -6.662466058528643e-05,
      "longitude_deg": 162.83669057139747,
      "height_km": 640.7226730999618,
      "semi_major_axis_km": 7018.483363091192,
      "eccentricity": 0.0006444,
      "inclination_deg": 51.8988,
      "raan_deg": 299.0099,
      "arg_perigee_deg": 274.7411,
      "mean_anomaly_deg": 85.2813,
      "mean_motion_rev_day": 14.76514954
    }
  ]
}